IRIDIUM 33 DEB          
1 37550U 97051XK  26191.02193271  .00003858  00000+0  63568-3 0  9990
2 37550  86.3757 290.8660 0005579 113.9831 246.1969 14.70271995894059
IRIDIUM 33 DEB          
1 37562U 97051XX  26191.11921591  .00002626  00000+0  55867-3 0  9992
2 37562  86.3745 312.1562 0026078 117.4418   2.7914 14.58476903893782
IRIDIUM 33 DEB          
1 37565U 97051YA  26191.52405963  .00001029  00000+0  24688-3 0  9993
2 37565  86.3477 278.1147 0015092  98.4454 261.8464 14.52439942688819
IRIDIUM 33 DEB          
1 38017U 97051YD  26189.13071548  .00006727  00000+0  15407-2 0  9996
2 38017  86.3307  75.5729 0078757 131.1032 229.7011 14.53566294644111
IRIDIUM 33 DEB          
1 38022U 97051YJ  26188.54918981  .00002086  00000+0  61185-3 0  9996
2 38022  86.2675 285.7484 0046097  86.5651 274.0821 14.42802459721740
IRIDIUM 33 DEB          
1 38028U 97051YQ  26189.48499872  .00000685  00000+0  18268-3 0  9996
2 38028  86.3256 269.9118 0029486 149.7984 210.4926 14.46773131684986
IRIDIUM 33 DEB          
1 38228U 97051ZC  26188.70647289  .00000515  00000+0  19743-3 0  9990
2 38228  86.2956 320.4699 0061961 243.0048 184.2067 14.27617118877343
IRIDIUM 33 DEB          
1 38241U 97051ZR  26187.94444913  .00001915  00000+0  42928-3 0  9995
2 38241  86.3200 259.5112 0005913  90.3179 269.8706 14.56138694632007
IRIDIUM 33 DEB          
1 38474U 97051AAB 26189.50425535  .00001519  00000+0  37180-3 0  9990
2 38474  86.3442 279.4465 0028803 109.9099 250.5214 14.51630404683318
IRIDIUM 33 DEB          
1 38477U 97051AAE 26187.84419443  .00002458  00000+0  18755-2 0  9998
2 38477  86.4061  29.2621 0394899 359.6210   0.4588 13.62154182574820
IRIDIUM 33 DEB          
1 39778U 97051AAK 26191.30136924  .00001931  00000+0  43508-3 0  9999
2 39778  86.3763 312.1365 0008257  54.6975 305.5004 14.55895728637409
IRIDIUM 33 DEB          
1 39781U 97051AAN 26185.22003520  .00010998  00000+0  40228-2 0  9990
2 39781  86.3788 173.9014 0165466 343.3313  30.0613 14.25510702110016
IRIDIUM 33 DEB          
1 40996U 97051ABJ 26190.96272285  .00032447  00000+0  17447-2 0  9993
2 40996  86.3457 262.1446 0001384  35.8479  87.2346 15.14735223656369
IRIDIUM 33 DEB          
1 40998U 97051ABL 26191.13134553  .00000946  00000+0  26093-3 0  9997
2 40998  86.3842 324.1722 0009704 102.7725  22.1135 14.45811725 97062
IRIDIUM 33 DEB          
1 46435U 97051ABN 26190.04641498  .00004334  00000+0  10933-2 0  9999
2 46435  86.2739 103.5663 0198144 312.6150 105.3029 14.39718700109086
IRIDIUM 33 DEB          
1 46734U 97051ABR 26183.54950497  .00002995  00000+0  87773-3 0  9998
2 46734  86.2619 274.1556 0039247  30.1181  27.4005 14.43173540659209
IRIDIUM 33 DEB          
1 46965U 97051ABX 26190.41185716  .00001529  00000+0  30188-3 0  9992
2 46965  86.3325 248.0146 0017472 342.6615  31.6211 14.61729049653159
IRIDIUM 33 DEB          
1 46971U 97051ACD 26162.49650385  .00039423  00000+0  23538-2 0  9999
2 46971  86.3141 246.9992 0002666  51.4984 324.3215 15.10943599669483
IRIDIUM 33 DEB          
1 46974U 97051ACG 26187.76232143  .00006792  00000+0  17190-2 0  9997
2 46974  86.3002  14.9696 0085971 220.3739 139.1064 14.48584053604873
IRIDIUM 33 DEB          
1 46979U 97051ACM 26185.09984075  .00137835  00000+0  74541-2 0  9990
2 46979  86.3189 312.2213 0020231 211.0966 148.9078 15.13879505384791
