OBJECT_NAME,OBJECT_ID,EPOCH,MEAN_MOTION,ECCENTRICITY,INCLINATION,RA_OF_ASC_NODE,ARG_OF_PERICENTER,MEAN_ANOMALY,EPHEMERIS_TYPE,CLASSIFICATION_TYPE,NORAD_CAT_ID,ELEMENT_SET_NO,REV_AT_EPOCH,BSTAR,MEAN_MOTION_DOT,MEAN_MOTION_DDOT
IRIDIUM 33 DEB,1997-051XK,2026-07-10T00:31:34.986144,14.70271995,.0005579,86.3757,290.8660,113.9831,246.1969,0,U,37550,999,89405,.63568276E-3,.3858E-4,0
IRIDIUM 33 DEB,1997-051XX,2026-07-10T02:51:40.254624,14.58476903,.00260784,86.3745,312.1562,117.4418,2.7914,0,U,37562,999,89378,.55866781E-3,.2626E-4,0
IRIDIUM 33 DEB,1997-051YA,2026-07-10T12:34:38.752032,14.52439942,.00150924,86.3477,278.1147,98.4454,261.8464,0,U,37565,999,68881,.24687512E-3,.1029E-4,0
IRIDIUM 33 DEB,1997-051YD,2026-07-08T03:08:13.817472,14.53566294,.00787572,86.3307,75.5729,131.1032,229.7011,0,U,38017,999,64411,.15407394E-2,.6727E-4,0
IRIDIUM 33 DEB,1997-051YJ,2026-07-07T13:10:49.999584,14.42802459,.00460971,86.2675,285.7484,86.5651,274.0821,0,U,38022,999,72174,.6118533E-3,.2086E-4,0
IRIDIUM 33 DEB,1997-051YQ,2026-07-08T11:38:23.889408,14.46773131,.00294867,86.3256,269.9118,149.7984,210.4926,0,U,38028,999,68498,.18268034E-3,.685E-5,0
IRIDIUM 33 DEB,1997-051ZC,2026-07-07T16:57:19.257696,14.27617118,.00619615,86.2956,320.4699,243.0048,184.2067,0,U,38228,999,87734,.19742863E-3,.515E-5,0
IRIDIUM 33 DEB,1997-051ZR,2026-07-06T22:40:00.404832,14.56138694,.00059133,86.3200,259.5112,90.3179,269.8706,0,U,38241,999,63200,.42927617E-3,.1915E-4,0
IRIDIUM 33 DEB,1997-051AAB,2026-07-08T12:06:07.662240,14.51630404,.00288035,86.3442,279.4465,109.9099,250.5214,0,U,38474,999,68331,.37180171E-3,.1519E-4,0
IRIDIUM 33 DEB,1997-051AAE,2026-07-06T20:15:38.398752,13.62154182,.03948997,86.4061,29.2621,359.6210,0.4588,0,U,38477,999,57482,.18754932E-2,.2458E-4,0
IRIDIUM 33 DEB,1997-051AAK,2026-07-10T07:13:58.302336,14.55895728,.00082578,86.3763,312.1365,54.6975,305.5004,0,U,39778,999,63740,.43508352E-3,.1931E-4,0
IRIDIUM 33 DEB,1997-051AAN,2026-07-04T05:16:51.041280,14.25510702,.0165466,86.3788,173.9014,343.3313,30.0613,0,U,39781,999,11001,.40228E-2,.10998E-3,0
IRIDIUM 33 DEB,1997-051ABJ,2026-07-09T23:06:19.254240,15.14735223,.00013844,86.3457,262.1446,35.8479,87.2346,0,U,40996,999,65636,.17446686E-2,.32447E-3,0
IRIDIUM 33 DEB,1997-051ABL,2026-07-10T03:09:08.253792,14.45811725,.00097042,86.3842,324.1722,102.7725,22.1135,0,U,40998,999,9706,.26093308E-3,.946E-5,0
IRIDIUM 33 DEB,1997-051ABN,2026-07-09T01:06:50.254272,14.39718700,.01981442,86.2739,103.5663,312.6150,105.3029,0,U,46435,999,10908,.10933332E-2,.4334E-4,0
IRIDIUM 33 DEB,1997-051ABR,2026-07-02T13:11:17.229408,14.43173540,.0039247,86.2619,274.1556,30.1181,27.4005,0,U,46734,999,65920,.87773E-3,.2995E-4,0
IRIDIUM 33 DEB,1997-051ABX,2026-07-09T09:53:04.458624,14.61729049,.00174723,86.3325,248.0146,342.6615,31.6211,0,U,46965,999,65315,.30187937E-3,.1529E-4,0
IRIDIUM 33 DEB,1997-051ACD,2026-06-11T11:54:57.932640,15.10943599,.00026668,86.3141,246.9992,51.4984,324.3215,0,U,46971,999,66948,.23538006E-2,.39423E-3,0
IRIDIUM 33 DEB,1997-051ACG,2026-07-06T18:17:44.571552,14.48584053,.00859716,86.3002,14.9696,220.3739,139.1064,0,U,46974,999,60487,.17190006E-2,.6792E-4,0
IRIDIUM 33 DEB,1997-051ACM,2026-07-04T02:23:46.240800,15.13879505,.0020231,86.3189,312.2213,211.0966,148.9078,0,U,46979,999,38479,.74541E-2,.137835E-2,0
